#dP2024  6  2  0  0  0.00000000      96 __u+U IGS20 EXT  IAC
## 2317      0.00000000   900.00000000 60463 0.0000000000000
+   53   G02G03G04G05G06G07G08G09G10G11G12G13G14G15G17G18G19
+        G20G21G22G23G24G25G26G27G28G29G30G31G32R01R02R03R04
+        R05R07R08R09R11R12R13R14R15R16R17R18R19R20R21R22R24
+        R25R26  0  0  0  0  0  0  0  0  0  0  0  0  0  0  0
+          0  0  0  0  0  0  0  0  0  0  0  0  0  0  0  0  0
++         9  7  7  8  9  8  7  7  6  9  6  9  8  9  6  7  7
++         9  9  8  8  7  8  7  8  8  7  7  8  7  9  7  8  8
++         6  7  8  9  8  8  7  8  7  7  8  7  8  8  8  8  7
++         8  8  0  0  0  0  0  0  0  0  0  0  0  0  0  0  0
++         0  0  0  0  0  0  0  0  0  0  0  0  0  0  0  0  0
%c M  cc GPS ccc cccc cccc cccc cccc ccccc ccccc ccccc ccccc
%c cc cc ccc ccc cccc cccc cccc cccc ccccc ccccc ccccc ccccc
%f  0.0000000  0.000000000  0.00000000000  0.000000000000000
%f  0.0000000  0.000000000  0.00000000000  0.000000000000000
%i    0    0    0    0      0      0      0      0         0
%i    0    0    0    0      0      0      0      0         0
/* IAC                                ULTRA-RAPID PREDICTION
/* S/V CLOCKS ARE ALIGNED TO GNSS TIME                      
/* G:C1WC2W R:C1PC2P E:C1XC5X C:C2IC6I J:C1CC2S             
/* PCV:IGS20_2290 OL/AL:FES2004  NONE     YN ORB:CoN CLK:CoN
*  2024 06 02 14 30  0.00000000
PG02  17217.184232   4039.250212  20382.297161   -425.092726
PG03  20299.522156  -8862.840283  14408.022069    394.221193
PG04  25567.227330    450.984922  -7419.454846    374.579641
PG05 -14305.878346  -5840.011385 -21791.772012   -174.907335
PG06  -4457.518391 -25465.592741   5887.937466    240.545008
PG07   8936.496591 -15491.939720 -18965.431366   -105.367596
PG08  25803.924639   6396.035251  -3435.998107    210.113393
PG09  18188.420973  -9236.611833 -17117.706928    219.479747
PG10  -7605.030444  21918.683187  12833.412357    -34.575356
PG11 -12079.968346 -22484.314488  -7428.175386   -676.645371
PG12 -20656.250161   5726.837220  15369.227824   -510.687525
PG13 -20681.256216 -13962.124931  -9641.867284    655.093114
PG14  11108.723234 -22204.188781   9168.037028    415.765034
PG15 -26181.314884  -3729.202475  -3902.522940    165.751281
PG17   4952.776479 -14449.537994  22153.485287    699.921650
PG18  -8376.721910  16209.698124 -19214.689011   -619.542464
PG19  -5925.212082 -16217.486178  20113.715187    490.755299
PG20  -7718.272891 -15251.913046 -20306.190833    374.355629
PG21  18116.624423  10199.640635  17521.545533    117.931103
PG22   5082.429723 -20814.836483  16300.043650    -22.011062
PG23 -15963.783175  21054.031827   1276.332835    240.596530
PG24 -17900.824704  -6424.773382  18279.563813   -474.803050
PG25 -20016.907961  14996.499077   8207.496545    496.746123
PG26   1615.983526  19895.280504 -17494.870404    143.429740
PG27  19342.131019  12982.297353 -13432.310232    -26.689837
PG28   3619.610064  25018.695046   8141.825185   -270.969752
PG29 -20959.190592   5390.145460 -15529.043309   -595.953268
PG30   1227.470255 -23416.180203 -12065.119781   -380.703420
PG31  10147.284460  24151.795631  -3015.617705   -227.595103
PG32  -1236.997574  15292.656329  21901.237520   -617.276789
PR01  24596.488099  -6425.570664  -1975.430374     87.218004
PR02  15137.830980 -10960.064957 -17344.372774    -23.151672
PR03  -3399.108425 -10334.080350 -23020.290196    101.315176
PR04 -19427.229741  -3979.839623 -16005.953577    239.275140
PR05 -25124.977264   4330.390855   -374.406083    132.459150
PR07   4358.020296  10156.118534  23035.206154     83.705749
PR08  19647.418663   3827.059399  15892.204797     -4.493837
PR09  -9889.843590  22948.067718   5362.901354    189.997491
PR11   7177.861296  11166.666374 -21772.625480     22.715041
PR12  13163.376498  -9370.012042 -19713.701898     40.840934
PR13  11045.251787 -21601.499667  -7887.541188    -47.979274
PR14   1500.502022 -22622.421926  11682.147657     26.540760
PR15  -8015.221305  -9646.146247  22233.023449     79.207873
PR16 -13001.510356   9241.495159  19931.800129     26.117597
PR17 -11081.720206 -20417.381604  10584.324045     92.274247
PR18 -17830.971135 -17245.145989  -5828.473484    145.067099
PR19 -16130.455188  -7251.973107 -18390.006093   -278.856759
PR20  -3576.305135  11673.751295 -22401.006501   -113.828089
PR21  10750.334157  20426.963486 -10831.715614   -105.930000
PR22  17690.077471  17028.364672   6956.355885    106.960224
PR24   2996.218846 -12508.535705  22040.741979    -58.267128
PR25  10309.624659  20937.242491 -10271.579332    -21.988078
PR26  18725.477260   4308.531609  16784.380246     -7.141508
*  2024 06 02 14 45  0.00000000
PG02  18089.260926   6013.013411  19093.449673   -425.086461
PG03  19284.211034  -7378.077434  16479.636109    394.237925
PG04  26204.484294    800.669702  -4675.717279    374.587042
PG05 -12869.058649  -7844.183717 -22051.295595   -174.908535
PG06  -4010.613864 -24752.354156   8645.021658    240.526575
PG07   9920.900157 -13350.378151 -20084.968533   -105.354992
PG08  25247.717394   6568.695821  -6181.602792    210.130587
PG09  19987.023687  -8833.964900 -15214.283067    219.492688
PG10  -8559.794033  22825.156270  10345.848054    -34.582132
PG11 -12084.971405 -23214.324741  -4677.454985   -676.653081
PG12 -19485.601917   4200.793699  17246.680724   -510.690447
PG13 -19473.190351 -13780.122790 -12129.249183    655.095598
PG14  11912.485007 -22704.822149   6525.891432    415.773307
PG15 -25636.576462  -4026.564171  -6610.731603    165.755013
PG17   7318.240697 -13920.603507  21842.715296    699.917550
PG18  -9256.291013  14110.529127 -20445.163922   -619.547176
PG19  -3607.690177 -15671.849540  21030.601719    490.760182
PG20  -6538.733566 -17191.390738 -19154.485449    374.354398
PG21  18825.927314  11846.351535  15677.908084    117.929024
PG22   6352.218861 -21912.330130  14258.950752    -22.015624
PG23 -16122.783208  20905.066785  -1628.443935    240.604865
PG24 -18678.581240  -8354.062453  16727.149293   -474.805672
PG25 -19542.584374  13925.219910  10763.516225    496.746667
PG26    362.377568  21337.272119 -15731.209170    143.424325
PG27  17737.608466  12905.842935 -15558.853959    -26.691218
PG28   2984.226520  24115.317274  10715.040655   -270.984949
PG29 -22519.619625   4862.408239 -13371.311940   -595.951896
PG30   2045.234912 -22076.983192 -14275.906771   -380.698065
PG31   9916.367079  24406.854468   -158.013891   -227.594958
PG32  -3668.390905  14933.285484  21859.055929   -617.276023
PR01  24604.916066  -6577.810371   1237.063665     87.218982
PR02  17073.412553 -11504.456149 -15054.481503    -23.151836
PR03   -619.371070 -10968.816960 -22973.744952    101.315779
PR04 -17332.814787  -4311.413305 -18174.570319    239.276826
PR05 -24846.509351   4452.725222  -3590.970810    132.459698
PR07   1589.360899  10774.911809  23107.756119     83.706493
PR08  17590.251352   4173.973363  18071.491550     -4.494289
PR09  -9576.775682  22159.353616   8394.453442    189.999512
PR11   6491.278855  13687.314128 -20515.586268     22.713946
PR12  12372.126895  -6968.478529 -21164.942444     40.841292
PR13  10608.679029 -20528.451509 -10813.292206    -47.979655
PR14   1757.484883 -23863.356919   8821.759058     26.540786
PR15  -7277.315777 -12216.455119  21197.107677     79.207516
PR16 -12207.077280   6823.965260  21355.248977     26.117863
PR17 -10207.812018 -19215.771161  13348.398524     92.277270
PR18 -18328.811233 -17504.619084  -2640.858948    145.068726
PR19 -17617.113271  -8795.413528 -16224.698891   -278.858082
PR20  -5341.614435   9486.878063 -23069.169348   -113.828701
PR21   9869.119171  19191.046843 -13584.720500   -105.932894
PR22  18229.812796  17439.761196   3833.892231    106.956997
PR24   4832.585975 -10443.884598  22776.261619    -58.268410
PR25   9477.891406  19755.689604 -13041.211896    -22.017103
PR26  16564.091306   4703.596963  18830.727694     -7.140859
EOF
